{"type": "FeatureCollection", "features": [ {"type": "Feature", "properties": {"norad_id": 38755, "name": "SPOT 6", "group": "resource", "lat": 74.57771326157673, "lon": 13.065617692178835, "alt_km": 689.9124243754804, "timestamp": "2025-12-05T11:32:55.683302+00:00", "meta": {"OBJECT_NAME": "SPOT 6", "OBJECT_ID": "2012-047A", "EPOCH": "2025-12-04T18:44:01.426848", "MEAN_MOTION": 14.58591754, "ECCENTRICITY": 0.0001054, "INCLINATION": 98.1583, "RA_OF_ASC_NODE": 43.7112, "ARG_OF_PERICENTER": 100.7713, "MEAN_ANOMALY": 259.3605, "EPHEMERIS_TYPE": 0, "CLASSIFICATION_TYPE": "U", "NORAD_CAT_ID": 38755, "ELEMENT_SET_NO": 999, "REV_AT_EPOCH": 70471, "BSTAR": 0.00018959, "MEAN_MOTION_DOT": 8.37e-06, "MEAN_MOTION_DDOT": 0}, "tle": {"line1": "1 38755U 12047A   25338.78057207  .00000837  00000+0  18959-3 0  9991", "line2": "2 38755  98.1583  43.7112 0001054 100.7713 259.3605 14.58591754704719"}}, "geometry": {"type": "Point", "coordinates": [13.065617692178835, 74.57771326157673]}}, {"type": "Feature", "properties": {"norad_id": 39019, "name": "PLEIADES 1B", "group": "resource", "lat": -23.11277325041282, "lon": 55.767168596485405, "alt_km": 703.6020041210522, "timestamp": "2025-12-05T11:32:55.683313+00:00", "meta": {"OBJECT_NAME": "PLEIADES 1B", "OBJECT_ID": "2012-068A", "EPOCH": "2025-12-04T17:32:40.845984", "MEAN_MOTION": 14.58540991, "ECCENTRICITY": 0.000124, "INCLINATION": 98.1804, "RA_OF_ASC_NODE": 51.509, "ARG_OF_PERICENTER": 87.3558, "MEAN_ANOMALY": 272.7783, "EPHEMERIS_TYPE": 0, "CLASSIFICATION_TYPE": "U", "NORAD_CAT_ID": 39019, "ELEMENT_SET_NO": 999, "REV_AT_EPOCH": 69250, "BSTAR": 0.00019356, "MEAN_MOTION_DOT": 8.54e-06, "MEAN_MOTION_DDOT": 0}, "tle": {"line1": "1 39019U 12068A   25338.73102831  .00000854  00000+0  19356-3 0  9998", "line2": "2 39019  98.1804  51.5090 0001240  87.3558 272.7783 14.58540991692501"}}, "geometry": {"type": "Point", "coordinates": [55.767168596485405, -23.11277325041282]}}, {"type": "Feature", "properties": {"norad_id": 39030, "name": "GOKTURK 2", "group": "resource", "lat": 63.2008207192602, "lon": 17.006239806808804, "alt_km": 637.585181558743, "timestamp": "2025-12-05T11:32:55.683324+00:00", "meta": {"OBJECT_NAME": "GOKTURK 2", "OBJECT_ID": "2012-073A", "EPOCH": "2025-12-04T17:07:13.274112", "MEAN_MOTION": 14.75274165, "ECCENTRICITY": 8.16e-05, "INCLINATION": 97.6898, "RA_OF_ASC_NODE": 180.7614, "ARG_OF_PERICENTER": 98.173, "MEAN_ANOMALY": 261.9573, "EPHEMERIS_TYPE": 0, "CLASSIFICATION_TYPE": "U", "NORAD_CAT_ID": 39030, "ELEMENT_SET_NO": 999, "REV_AT_EPOCH": 69583, "BSTAR": 0.00019104, "MEAN_MOTION_DOT": 1.246e-05, "MEAN_MOTION_DDOT": 0}, "tle": {"line1": "1 39030U 12073A   25338.71334808  .00001246  00000+0  19104-3 0  9993", "line2": "2 39030  97.6898 180.7614 0000816  98.1730 261.9573 14.75274165695830"}}, "geometry": {"type": "Point", "coordinates": [17.006239806808804, 63.2008207192602]}}, {"type": "Feature", "properties": {"norad_id": 39084, "name": "LANDSAT 8", "group": "resource", "lat": -4.420221945702019, "lon": -132.9777562333228, "alt_km": 706.2480612932259, "timestamp": "2025-12-05T11:32:55.683334+00:00", "meta": {"OBJECT_NAME": "LANDSAT 8", "OBJECT_ID": "2013-008A", "EPOCH": "2025-12-04T16:34:36.045408", "MEAN_MOTION": 14.57102749, "ECCENTRICITY": 0.000116, "INCLINATION": 98.2083, "RA_OF_ASC_NODE": 46.8827, "ARG_OF_PERICENTER": 84.7723, "MEAN_ANOMALY": 275.3608, "EPHEMERIS_TYPE": 0, "CLASSIFICATION_TYPE": "U", "NORAD_CAT_ID": 39084, "ELEMENT_SET_NO": 999, "REV_AT_EPOCH": 66957, "BSTAR": 0.00028613, "MEAN_MOTION_DOT": 1.244e-05, "MEAN_MOTION_DDOT": 0}, "tle": {"line1": "1 39084U 13008A   25338.69069497  .00001244  00000+0  28613-3 0  9990", "line2": "2 39084  98.2083  46.8827 0001160  84.7723 275.3608 14.57102749669574"}}, "geometry": {"type": "Point", "coordinates": [-132.9777562333228, -4.420221945702019]}}, {"type": "Feature", "properties": {"norad_id": 39086, "name": "SARAL", "group": "resource", "lat": 80.24005266119542, "lon": 102.50084507085326, "alt_km": 773.5851427007583, "timestamp": "2025-12-05T11:32:55.683345+00:00", "meta": {"OBJECT_NAME": "SARAL", "OBJECT_ID": "2013-009A", "EPOCH": "2025-12-04T16:42:56.334240", "MEAN_MOTION": 14.32752783, "ECCENTRICITY": 0.0002671, "INCLINATION": 98.5506, "RA_OF_ASC_NODE": 162.7318, "ARG_OF_PERICENTER": 124.0685, "MEAN_ANOMALY": 236.0752, "EPHEMERIS_TYPE": 0, "CLASSIFICATION_TYPE": "U", "NORAD_CAT_ID": 39086, "ELEMENT_SET_NO": 999, "REV_AT_EPOCH": 66775, "BSTAR": 0.00011941, "MEAN_MOTION_DOT": 2.82e-06, "MEAN_MOTION_DDOT": 0}, "tle": {"line1": "1 39086U 13009A   25338.69648535  .00000282  00000+0  11941-3 0  9996", "line2": "2 39086  98.5506 162.7318 0002671 124.0685 236.0752 14.32752783667759"}}, "geometry": {"type": "Point", "coordinates": [102.50084507085326, 80.24005266119542]}}, {"type": "Feature", "properties": {"norad_id": 39150, "name": "GAOFEN-1", "group": "resource", "lat": 18.518966889662515, "lon": -127.05414571570657, "alt_km": 628.2598400822862, "timestamp": "2025-12-05T11:32:55.683356+00:00", "meta": {"OBJECT_NAME": "GAOFEN-1", "OBJECT_ID": "2013-018A", "EPOCH": "2025-12-04T18:33:24.773760", "MEAN_MOTION": 14.765122, "ECCENTRICITY": 0.0017736, "INCLINATION": 97.9336, "RA_OF_ASC_NODE": 49.573, "ARG_OF_PERICENTER": 168.0019, "MEAN_ANOMALY": 192.1617, "EPHEMERIS_TYPE": 0, "CLASSIFICATION_TYPE": "U", "NORAD_CAT_ID": 39150, "ELEMENT_SET_NO": 999, "REV_AT_EPOCH": 67955, "BSTAR": 0.0002314, "MEAN_MOTION_DOT": 1.565e-05, "MEAN_MOTION_DDOT": 0}, "tle": {"line1": "1 39150U 13018A   25338.77320340  .00001565  00000+0  23140-3 0  9997", "line2": "2 39150  97.9336  49.5730 0017736 168.0019 192.1617 14.76512200679551"}}, "geometry": {"type": "Point", "coordinates": [-127.05414571570657, 18.518966889662515]}}, {"type": "Feature", "properties": {"norad_id": 39160, "name": "VNREDSAT 1", "group": "resource", "lat": 13.10041883818239, "lon": -143.12886760224404, "alt_km": 678.4410324113769, "timestamp": "2025-12-05T11:32:55.683367+00:00", "meta": {"OBJECT_NAME": "VNREDSAT 1", "OBJECT_ID": "2013-021B", "EPOCH": "2025-12-04T18:23:50.815104", "MEAN_MOTION": 14.64904471, "ECCENTRICITY": 0.0001349, "INCLINATION": 97.9385, "RA_OF_ASC_NODE": 34.3206, "ARG_OF_PERICENTER": 83.6428, "MEAN_ANOMALY": 276.4929, "EPHEMERIS_TYPE": 0, "CLASSIFICATION_TYPE": "U", "NORAD_CAT_ID": 39160, "ELEMENT_SET_NO": 999, "REV_AT_EPOCH": 67182, "BSTAR": 0.00026543, "MEAN_MOTION_DOT": 1.373e-05, "MEAN_MOTION_DDOT": 0}, "tle": {"line1": "1 39160U 13021B   25338.76656036  .00001373  00000+0  26543-3 0  9992", "line2": "2 39160  97.9385  34.3206 0001349  83.6428 276.4929 14.64904471671821"}}, "geometry": {"type": "Point", "coordinates": [-143.12886760224404, 13.10041883818239]}}, {"type": "Feature", "properties": {"norad_id": 39227, "name": "ARIRANG-5 (KOMPSAT-5)", "group": "resource", "lat": -66.748080915879, "lon": -177.96931393847362, "alt_km": 562.6101612254879, "timestamp": "2025-12-05T11:32:55.683377+00:00", "meta": {"OBJECT_NAME": "ARIRANG-5 (KOMPSAT-5)", "OBJECT_ID": "2013-042A", "EPOCH": "2025-12-04T18:17:32.499744", "MEAN_MOTION": 15.04511877, "ECCENTRICITY": 0.0004173, "INCLINATION": 97.6151, "RA_OF_ASC_NODE": 163.1802, "ARG_OF_PERICENTER": 79.1291, "MEAN_ANOMALY": 281.0404, "EPHEMERIS_TYPE": 0, "CLASSIFICATION_TYPE": "U", "NORAD_CAT_ID": 39227, "ELEMENT_SET_NO": 999, "REV_AT_EPOCH": 67462, "BSTAR": 0.00024026, "MEAN_MOTION_DOT": 3.305e-05, "MEAN_MOTION_DDOT": 0}, "tle": {"line1": "1 39227U 13042A   25338.76218171  .00003305  00000+0  24026-3 0  9994", "line2": "2 39227  97.6151 163.1802 0004173  79.1291 281.0404 15.04511877674622"}}, "geometry": {"type": "Point", "coordinates": [-177.96931393847362, -66.748080915879]}}, {"type": "Feature", "properties": {"norad_id": 39418, "name": "SKYSAT-A", "group": "resource", "lat": 58.0605557325044, "lon": -138.03558254213328, "alt_km": 537.1671458218725, "timestamp": "2025-12-05T11:32:55.683388+00:00", "meta": {"OBJECT_NAME": "SKYSAT-A", "OBJECT_ID": "2013-066C", "EPOCH": "2025-12-04T15:56:50.841312", "MEAN_MOTION": 15.11511917, "ECCENTRICITY": 0.0020403, "INCLINATION": 97.4121, "RA_OF_ASC_NODE": 29.1189, "ARG_OF_PERICENTER": 266.4251, "MEAN_ANOMALY": 93.4646, "EPHEMERIS_TYPE": 0, "CLASSIFICATION_TYPE": "U", "NORAD_CAT_ID": 39418, "ELEMENT_SET_NO": 999, "REV_AT_EPOCH": 65908, "BSTAR": 0.00044387, "MEAN_MOTION_DOT": 7.494e-05, "MEAN_MOTION_DDOT": 0}, "tle": {"line1": "1 39418U 13066C   25338.66447733  .00007494  00000+0  44387-3 0  9994", "line2": "2 39418  97.4121  29.1189 0020403 266.4251  93.4646 15.11511917659088"}}, "geometry": {"type": "Point", "coordinates": [-138.03558254213328, 58.0605557325044]}}, {"type": "Feature", "properties": {"norad_id": 39419, "name": "DUBAISAT-2", "group": "resource", "lat": -11.691328113396073, "lon": -28.3362676959856, "alt_km": 538.1808750799783, "timestamp": "2025-12-05T11:32:55.683398+00:00", "meta": {"OBJECT_NAME": "DUBAISAT-2", "OBJECT_ID": "2013-066D", "EPOCH": "2025-12-04T18:05:09.535776", "MEAN_MOTION": 15.08235646, "ECCENTRICITY": 0.001131, "INCLINATION": 97.4438, "RA_OF_ASC_NODE": 329.4084, "ARG_OF_PERICENTER": 350.8034, "MEAN_ANOMALY": 9.2985, "EPHEMERIS_TYPE": 0, "CLASSIFICATION_TYPE": "U", "NORAD_CAT_ID": 39419, "ELEMENT_SET_NO": 999, "REV_AT_EPOCH": 65706, "BSTAR": 0.00059954, "MEAN_MOTION_DOT": 9.24e-05, "MEAN_MOTION_DDOT": 0}, "tle": {"line1": "1 39419U 13066D   25338.75358259  .00009240  00000+0  59954-3 0  9996", "line2": "2 39419  97.4438 329.4084 0011310 350.8034   9.2985 15.08235646657069"}}, "geometry": {"type": "Point", "coordinates": [-28.3362676959856, -11.691328113396073]}}]}